2026-134C               
1 69540U 26134C   26182.44072373  .00006027  00000+0  37886-3 0  9998
2 69540  97.6987 252.6001 0014348 221.8202 138.1931 15.09532956  2457
2026-134D               
1 69541U 26134D   26182.17496550  .00005878  00000+0  36899-3 0  9992
2 69541  97.7030 252.3424 0015409 222.5888 137.4147 15.09587177  2413
2026-134E               
1 69542U 26134E   26182.43986876  .00006189  00000+0  38804-3 0  9991
2 69542  97.7046 252.6127 0015144 222.3728 137.6332 15.09611565  2452
2026-134F               
1 69543U 26134F   26182.17424671  .00005403  00000+0  33901-3 0  9994
2 69543  97.7000 252.3377 0014392 225.1493 134.8567 15.09653722  2417
2026-134G               
1 69544U 26134G   26182.50475156  .00006166  00000+0  38525-3 0  9990
2 69544  97.7042 252.6805 0014969 224.7411 135.2611 15.09741815  2469
2026-134H               
1 69545U 26134H   26182.63659186  .00005514  00000+0  34435-3 0  9994
2 69545  97.7025 252.8118 0014775 225.8112 134.1903 15.09807794  2477
STARLINK-37880          
1 69546U 26135A   26182.52224950  .00372717  00000+0  18490-2 0  9995
2 69546  97.2835 210.3468 0001138 274.0553  86.0585 15.81000344  2526
STARLINK-37881          
1 69547U 26135B   26182.45837686  .00423305  00000+0  20826-2 0  9990
2 69547  97.2830 210.2802 0001657 111.6961 248.4484 15.81053465  2511
STARLINK-37265          
1 69548U 26135C   26182.45770272  .00504073  00000+0  24530-2 0  9996
2 69548  97.2834 210.2809 0002201 118.1719 241.9771 15.81085653  2513
STARLINK-37871          
1 69549U 26135D   26182.45677183  .00426561  00000+0  20979-2 0  9992
2 69549  97.2832 210.2827 0001136 117.8199 242.3184 15.81051795  2519
STARLINK-37865          
1 69550U 26135E   26182.45531581  .00290708  00000+0  14531-2 0  9994
2 69550  97.2838 210.2843 0000557  42.0176 318.1135 15.81044817  2510
STARLINK-37862          
1 69551U 26135F   26182.26263588  .00422585  00000+0  20896-2 0  9994
2 69551  97.2841 210.0869 0000540  48.6960 311.4355 15.80941719  2488
STARLINK-37861          
1 69552U 26135G   26182.45063576  .00332202  00000+0  16625-2 0  9992
2 69552  97.2845 210.2919 0001213  62.2253 297.9138 15.80912307  2518
STARLINK-37859          
1 69553U 26135H   26182.44942668 -.01014610  00000+0 -57908-2 0  9992
2 69553  97.2847 210.2913 0002439 131.4105 228.7373 15.81380596  2514
STARLINK-37860          
1 69554U 26135J   26182.58335648 -.00009808  00000+0 -50562-4 0  9995
2 69554  97.2842 210.4344 0001520  89.7140 312.0975 15.80797073  3623
STARLINK-37858          
1 69555U 26135K   26182.58335648 -.00021420  00000+0 -11143-3 0  9991
2 69555  97.2841 210.4389 0001333  90.3032 321.8293 15.80802563  3624
STARLINK-37927          
1 69556U 26135L   26182.58335648  .00005835  00000+0  31216-4 0  9996
2 69556  97.2843 210.4401 0001409  88.9412 324.5569 15.80792199  3620
STARLINK-37929          
1 69557U 26135M   26182.57313651  .00137532  00000+0  70585-3 0  9997
2 69557  97.2842 210.4305 0000989 103.2911 256.8468 15.80866955  2536
STARLINK-37954          
1 69558U 26135N   26182.25541639  .00459354  00000+0  22642-2 0  9991
2 69558  97.2859 210.0975 0002149   2.6682 357.4598 15.80919977  2480
STARLINK-37958          
1 69559U 26135P   26182.58335648  .00043218  00000+0  22561-3 0  9998
2 69559  97.2843 210.4511 0001342  88.2886 350.9096 15.80781416  3627
STARLINK-37950          
1 69560U 26135Q   26182.58335648  .00025055  00000+0  13132-3 0  9993
2 69560  97.2843 210.4512 0001500  98.3246 341.7012 15.80789970  3627
STARLINK-37952          
1 69561U 26135R   26182.44126592  .00485541  00000+0  23582-2 0  9994
2 69561  97.2836 210.3043 0001289  99.3482 260.7932 15.81175152  2515
STARLINK-37935          
1 69562U 26135S   26182.37723028  .00224548  00000+0  11372-2 0  9996
2 69562  97.2837 210.2382 0000869  75.4808 284.6557 15.80929604  2507
STARLINK-37936          
1 69563U 26135T   26182.55980109  .03562510  00000+0  14224-1 0  9997
2 69563  97.2825 210.4502 0005630 260.4651  99.5982 15.83290957  2537
STARLINK-37932          
1 69564U 26135U   26182.55975964  .00298521  00000+0  14854-2 0  9996
2 69564  97.2846 210.4523 0000988 175.5706 184.5571 15.81124707  2538
STARLINK-37916          
1 69565U 26135V   26182.05281673  .00261847  00000+0  13184-2 0  9995
2 69565  97.2821 209.9169 0000975 345.5530  14.5710 15.80960891  2450
STARLINK-37909          
1 69566U 26135W   26182.04649545  .00326771  00000+0  16350-2 0  9997
2 69566  97.2817 209.9239 0001341  12.8393 347.2909 15.80930695  2458
STARLINK-37934          
1 69567U 26135X   26182.55611640  .00101189  00000+0  52269-3 0  9993
2 69567  97.2855 210.4528 0003746  30.8332 329.3156 15.80817806  2535
STARLINK-37938          
1 69568U 26135Y   26182.04725695  .00274885  00000+0  13858-2 0  9998
2 69568  97.2820 209.9222 0001181  26.4847 333.6481 15.80898661  2453
STARLINK-37924          
1 69569U 26135Z   26182.48759363  .00186838  00000+0  95109-3 0  9996
2 69569  97.2828 210.3953 0001758 158.9252 201.2089 15.80915113  2524
