OBJECT_NAME,OBJECT_ID,EPOCH,MEAN_MOTION,ECCENTRICITY,INCLINATION,RA_OF_ASC_NODE,ARG_OF_PERICENTER,MEAN_ANOMALY,EPHEMERIS_TYPE,CLASSIFICATION_TYPE,NORAD_CAT_ID,ELEMENT_SET_NO,REV_AT_EPOCH,BSTAR,MEAN_MOTION_DOT,MEAN_MOTION_DDOT
2026-134C,2026-134C,2026-07-01T10:34:38.530272,15.09532956,.00143484,97.6987,252.6001,221.8202,138.1931,0,U,69540,999,245,.37886063E-3,.6027E-4,0
2026-134D,2026-134D,2026-07-01T04:11:57.019200,15.09587177,.0015409,97.7030,252.3424,222.5888,137.4147,0,U,69541,999,241,.36899E-3,.5878E-4,0
2026-134E,2026-134E,2026-07-01T10:33:24.660864,15.09611565,.00151444,97.7046,252.6127,222.3728,137.6332,0,U,69542,999,245,.38803774E-3,.6189E-4,0
2026-134F,2026-134F,2026-07-01T04:10:54.915744,15.09653722,.0014392,97.7000,252.3377,225.1493,134.8567,0,U,69543,999,241,.33901E-3,.5403E-4,0
2026-134G,2026-134G,2026-07-01T12:06:50.534784,15.09741815,.00149697,97.7042,252.6805,224.7411,135.2611,0,U,69544,999,246,.385254E-3,.6166E-4,0
2026-134H,2026-134H,2026-07-01T15:16:41.536704,15.09807794,.00147758,97.7025,252.8118,225.8112,134.1903,0,U,69545,999,247,.34435451E-3,.5514E-4,0
STARLINK-37880,2026-135A,2026-07-01T12:32:02.356800,15.81000344,.00011389,97.2835,210.3468,274.0553,86.0585,0,U,69546,999,252,.18490009E-2,.372717E-2,0
STARLINK-37881,2026-135B,2026-07-01T11:00:03.760704,15.81053465,.00016577,97.2830,210.2802,111.6961,248.4484,0,U,69547,999,251,.20825539E-2,.423305E-2,0
STARLINK-37265,2026-135C,2026-07-01T10:59:05.515008,15.81085653,.00022013,97.2834,210.2809,118.1719,241.9771,0,U,69548,999,251,.24530436E-2,.504073E-2,0
STARLINK-37871,2026-135D,2026-07-01T10:57:45.086112,15.81051795,.00011362,97.2832,210.2827,117.8199,242.3184,0,U,69549,999,251,.20978649E-2,.426561E-2,0
STARLINK-37865,2026-135E,2026-07-01T10:55:39.285984,15.81044817,.0000557,97.2838,210.2843,42.0176,318.1135,0,U,69550,999,251,.14531244E-2,.290708E-2,0
STARLINK-37862,2026-135F,2026-07-01T06:18:11.740032,15.80941719,.000054,97.2841,210.0869,48.6960,311.4355,0,U,69551,999,248,.20896E-2,.422585E-2,0
STARLINK-37861,2026-135G,2026-07-01T10:48:54.929664,15.80912307,.0001213,97.2845,210.2919,62.2253,297.9138,0,U,69552,999,251,.16625261E-2,.332202E-2,0
STARLINK-37859,2026-135H,2026-07-01T10:47:10.465152,15.81380596,.00024394,97.2847,210.2913,131.4105,228.7373,0,U,69553,999,251,-.57908196E-2,-.101461E-1,0
STARLINK-37860,2026-135J,2026-07-01T14:00:01.999872,15.80797073,.00015204,97.2842,210.4344,89.7140,312.0975,0,U,69554,999,362,-.50562444E-4,-.9808E-4,0
STARLINK-37858,2026-135K,2026-07-01T14:00:01.999872,15.80802563,.00013338,97.2841,210.4389,90.3032,321.8293,0,U,69555,999,362,-.11142742E-3,-.2142E-3,0
STARLINK-37927,2026-135L,2026-07-01T14:00:01.999872,15.80792199,.00014095,97.2843,210.4401,88.9412,324.5569,0,U,69556,999,362,.31215907E-4,.5835E-4,0
STARLINK-37929,2026-135M,2026-07-01T13:45:18.994464,15.80866955,.00009893,97.2842,210.4305,103.2911,256.8468,0,U,69557,999,253,.70585327E-3,.137532E-2,0
STARLINK-37954,2026-135N,2026-07-01T06:07:47.976096,15.80919977,.0002149,97.2859,210.0975,2.6682,357.4598,0,U,69558,999,248,.22642E-2,.459354E-2,0
STARLINK-37958,2026-135P,2026-07-01T14:00:01.999872,15.80781416,.0001342,97.2843,210.4511,88.2886,350.9096,0,U,69559,999,362,.22560501E-3,.43218E-3,0
STARLINK-37950,2026-135Q,2026-07-01T14:00:01.999872,15.80789970,.00015008,97.2843,210.4512,98.3246,341.7012,0,U,69560,999,362,.13132438E-3,.25055E-3,0
STARLINK-37952,2026-135R,2026-07-01T10:35:25.375488,15.81175152,.00012891,97.2836,210.3043,99.3482,260.7932,0,U,69561,999,251,.23582094E-2,.485541E-2,0
STARLINK-37935,2026-135S,2026-07-01T09:03:12.696192,15.80929604,.00008697,97.2837,210.2382,75.4808,284.6557,0,U,69562,999,250,.1137206E-2,.224548E-2,0
STARLINK-37936,2026-135T,2026-07-01T13:26:06.814176,15.83290957,.00056308,97.2825,210.4502,260.4651,99.5982,0,U,69563,999,253,.14224218E-1,.356251E-1,0
STARLINK-37932,2026-135U,2026-07-01T13:26:03.232896,15.81124707,.00009884,97.2846,210.4523,175.5706,184.5571,0,U,69564,999,253,.14854134E-2,.298521E-2,0
STARLINK-37916,2026-135V,2026-07-01T01:16:03.365472,15.80960891,.00009758,97.2821,209.9169,345.5530,14.5710,0,U,69565,999,245,.13183901E-2,.261847E-2,0
STARLINK-37909,2026-135W,2026-07-01T01:06:57.206880,15.80930695,.00013417,97.2817,209.9239,12.8393,347.2909,0,U,69566,999,245,.16350272E-2,.326771E-2,0
STARLINK-37934,2026-135X,2026-07-01T13:20:48.456960,15.80817806,.00037462,97.2855,210.4528,30.8332,329.3156,0,U,69567,999,253,.52268874E-3,.101189E-2,0
STARLINK-37938,2026-135Y,2026-07-01T01:08:03.000480,15.80898661,.00011811,97.2820,209.9222,26.4847,333.6481,0,U,69568,999,245,.13858438E-2,.274885E-2,0
STARLINK-37924,2026-135Z,2026-07-01T11:42:08.089632,15.80915113,.00017585,97.2828,210.3953,158.9252,201.2089,0,U,69569,999,252,.95109196E-3,.186838E-2,0
